O3B MPOWER F1           
1 54755U 22174A   24271.50876054 -.00000032  00000+0  00000+0 0  9997
2 54755   0.0535 345.7859 0006529 193.2210 222.0357  5.00113548 33950
